{"fetched_at":"2026-07-10T07:59:19.509Z","source":"https://celestrak.org/NORAD/elements/gp.php?NAME=SENTINEL&FORMAT=JSON","constellation":"sentinel-6","records":[{"OBJECT_NAME":"SENTINEL-6A","OBJECT_ID":"2020-086A","EPOCH":"2026-07-09T02:28:10.320672","CLASSIFICATION_TYPE":"U","MEAN_MOTION":12.80930079,"ECCENTRICITY":0.00078178,"INCLINATION":66.0415,"RA_OF_ASC_NODE":89.5347,"ARG_OF_PERICENTER":270.0066,"MEAN_ANOMALY":90.0053,"EPHEMERIS_TYPE":0,"NORAD_CAT_ID":46984,"ELEMENT_SET_NO":999,"REV_AT_EPOCH":26313,"BSTAR":-0.000041416633,"MEAN_MOTION_DOT":-7.1e-7,"MEAN_MOTION_DDOT":0},{"OBJECT_NAME":"SENTINEL-6B","OBJECT_ID":"2025-264A","EPOCH":"2026-07-09T04:21:06.140448","CLASSIFICATION_TYPE":"U","MEAN_MOTION":12.80930087,"ECCENTRICITY":0.00078824,"INCLINATION":66.0415,"RA_OF_ASC_NODE":89.4979,"ARG_OF_PERICENTER":268.8305,"MEAN_ANOMALY":91.1807,"EPHEMERIS_TYPE":0,"NORAD_CAT_ID":66514,"ELEMENT_SET_NO":999,"REV_AT_EPOCH":2998,"BSTAR":-0.00004200914,"MEAN_MOTION_DOT":-7.1e-7,"MEAN_MOTION_DDOT":0}]}
